[{"OBJECT_NAME":"STARLINK-5327","OBJECT_ID":"2023-010Y","EPOCH":"2026-03-09T22:37:04.624032","MEAN_MOTION":14.98328369,"ECCENTRICITY":0.00029345,"INCLINATION":70.0014,"RA_OF_ASC_NODE":23.9539,"ARG_OF_PERICENTER":269.241,"MEAN_ANOMALY":90.8413,"EPHEMERIS_TYPE":0,"CLASSIFICATION_TYPE":"U","NORAD_CAT_ID":55291,"ELEMENT_SET_NO":999,"REV_AT_EPOCH":17330,"BSTAR":4.0965856e-5,"MEAN_MOTION_DOT":3.96e-6,"MEAN_MOTION_DDOT":0},{"OBJECT_NAME":"SATELIOT_4","OBJECT_ID":"2024-149BX","EPOCH":"2026-03-09T17:48:54.333792","MEAN_MOTION":14.96254023,"ECCENTRICITY":0.00023903,"INCLINATION":97.6789,"RA_OF_ASC_NODE":145.1106,"ARG_OF_PERICENTER":45.2073,"MEAN_ANOMALY":314.9342,"EPHEMERIS_TYPE":0,"CLASSIFICATION_TYPE":"U","NORAD_CAT_ID":60537,"ELEMENT_SET_NO":999,"REV_AT_EPOCH":8510,"BSTAR":0.00026256084,"MEAN_MOTION_DOT":2.907e-5,"MEAN_MOTION_DDOT":0}]
